COMMENT,ORIGINATOR,NORAD_CAT_ID,OBJECT_NAME,OBJECT_TYPE,CLASSIFICATION_TYPE,INTLDES,EPOCH,EPOCH_MICROSECONDS,MEAN_MOTION,ECCENTRICITY,INCLINATION,RA_OF_ASC_NODE,ARG_OF_PERICENTER,MEAN_ANOMALY,EPHEMERIS_TYPE,ELEMENT_SET_NO,REV_AT_EPOCH,BSTAR,MEAN_MOTION_DOT,MEAN_MOTION_DDOT,FILE,TLE_LINE0,TLE_LINE1,TLE_LINE2,OBJECT_ID,OBJECT_NUMBER,SEMIMAJOR_AXIS,PERIOD,APOGEE,PERIGEE
GENERATED VIA SPACETRACK.ORG API,18 SPCS,41616,FLOCK 2P 5,PAYLOAD,U,16040T,2/20/2019 22:09,980064,15.25067363,0.0011906,97.388,118.94,88.1977,272.0624,0,999,14812,4.99E-05,1.18E-05,0,2413712,0 FLOCK 2P 5,1 41616U 16040T   19051.92292801 +.00001178 +00000-0 +49893-4 0  9992,2 41616 097.3880 118.9400 0011906 088.1977 272.0624 15.25067363148122,2016-040T,41616,6868.72,94.422,498.763,482.407
GENERATED VIA SPACETRACK.ORG API,18 SPCS,41616,FLOCK 2P 5,PAYLOAD,U,16040T,2/21/2019 9:10,709504,15.25068695,0.0011898,97.388,119.3933,86.7855,273.4744,0,999,14819,5.17E-05,1.22E-05,0,2414199,0 FLOCK 2P 5,1 41616U 16040T   19052.38221886 +.00001224 +00000-0 +51730-4 0  9993,2 41616 097.3880 119.3933 0011898 086.7855 273.4744 15.25068695148191,2016-040T,41616,6868.716,94.421,498.753,482.408
GENERATED VIA SPACETRACK.ORG API,18 SPCS,41616,FLOCK 2P 5,PAYLOAD,U,16040T,2/21/2019 15:28,526880,15.25069543,0.001189,97.3879,119.6523,85.989,274.2707,0,999,14823,5.28E-05,1.25E-05,0,2414141,0 FLOCK 2P 5,1 41616U 16040T   19052.64467045  .00001251  00000-0  52822-4 0  9994,2 41616  97.3879 119.6523 0011890  85.9890 274.2707 15.25069543148235,2016-040T,41616,6868.713,94.421,498.745,482.411
GENERATED VIA SPACETRACK.ORG API,18 SPCS,41616,FLOCK 2P 5,PAYLOAD,U,16040T,2/21/2019 20:11,374144,15.25070285,0.0011883,97.3879,119.8466,85.361,274.8985,0,999,14826,5.44E-05,1.29E-05,0,2414564,0 FLOCK 2P 5,1 41616U 16040T   19052.84150896 +.00001290 +00000-0 +54390-4 0  9994,2 41616 097.3879 119.8466 0011883 085.3610 274.8985 15.25070285148261,2016-040T,41616,6868.711,94.421,498.738,482.414
GENERATED VIA SPACETRACK.ORG API,18 SPCS,41616,FLOCK 2P 5,PAYLOAD,U,16040T,2/22/2019 19:49,727104,15.25071198,0.0011854,97.3878,120.8179,82.3005,277.9579,0,999,14841,4.65E-05,1.09E-05,0,2414699,0 FLOCK 2P 5,1 41616U 16040T   19053.82570286  .00001092  00000-0  46459-4 0  9999,2 41616  97.3878 120.8179 0011854  82.3005 277.9579 15.25071198148410,2016-040T,41616,6868.708,94.421,498.715,482.431
GENERATED VIA SPACETRACK.ORG API,18 SPCS,41616,FLOCK 2P 5,PAYLOAD,U,16040T,2/23/2019 21:00,820352,15.25073696,0.001182,97.3876,121.8541,79.1534,281.1033,0,999,14857,4.76E-05,1.12E-05,0,2415263,0 FLOCK 2P 5,1 41616U 16040T   19054.87550718 +.00001121 +00000-0 +47635-4 0  9993,2 41616 097.3876 121.8541 0011820 079.1534 281.1033 15.25073696148570,2016-040T,41616,6868.701,94.421,498.684,482.447
GENERATED VIA SPACETRACK.ORG API,18 SPCS,41616,FLOCK 2P 5,PAYLOAD,U,16040T,2/24/2019 3:18,568608,15.25074286,0.0011812,97.3876,122.1131,78.3606,281.8957,0,999,14861,4.74E-05,1.12E-05,0,2415416,0 FLOCK 2P 5,1 41616U 16040T   19055.13795797  .00001115  00000-0  47402-4 0  9996,2 41616  97.3876 122.1131 0011812  78.3606 281.8957 15.25074286148614,2016-040T,41616,6868.699,94.421,498.677,482.451
GENERATED VIA SPACETRACK.ORG API,18 SPCS,41616,FLOCK 2P 5,PAYLOAD,U,16040T,2/24/2019 22:12,820288,15.25075315,0.0011773,97.3874,122.8901,75.981,284.2736,0,999,14873,4.32E-05,1.01E-05,0,2415839,0 FLOCK 2P 5,1 41616U 16040T   19055.92531042 +.00001009 +00000-0 +43151-4 0  9993,2 41616 097.3874 122.8901 0011773 075.9810 284.2736 15.25075315148739,2016-040T,41616,6868.696,94.421,498.647,482.474
GENERATED VIA SPACETRACK.ORG API,18 SPCS,41616,FLOCK 2P 5,PAYLOAD,U,16040T,2/25/2019 4:30,538304,15.25075904,0.0011762,97.3874,123.1491,75.1761,285.0779,0,999,14877,4.29E-05,1.00E-05,0,2415966,0 FLOCK 2P 5,1 41616U 16040T   19056.18776086  .00001004  00000-0  42947-4 0  9998,2 41616  97.3874 123.1491 0011762  75.1761 285.0779 15.25075904148776,2016-040T,41616,6868.694,94.421,498.638,482.48
GENERATED VIA SPACETRACK.ORG API,18 SPCS,41616,FLOCK 2P 5,PAYLOAD,U,16040T,2/25/2019 15:31,42240,15.2507699,0.0011746,97.3873,123.6024,73.8237,286.4293,0,999,14884,4.38E-05,1.03E-05,0,2416364,0 FLOCK 2P 5,1 41616U 16040T   19056.64704910 +.00001025 +00000-0 +43809-4 0  9997,2 41616 097.3873 123.6024 0011746 073.8237 286.4293 15.25076990148847,2016-040T,41616,6868.691,94.421,498.624,482.488
GENERATED VIA SPACETRACK.ORG API,18 SPCS,41616,FLOCK 2P 5,PAYLOAD,U,16040T,2/26/2019 18:17,762592,15.2507939,0.001171,97.3872,124.7031,70.4023,289.8478,0,999,14901,4.55E-05,1.07E-05,0,2416838,0 FLOCK 2P 5,1 41616U 16040T   19057.76246253  .00001068  00000-0  45485-4 0  9991,2 41616  97.3872 124.7031 0011710  70.4023 289.8478 15.25079390149012,2016-040T,41616,6868.684,94.421,498.592,482.505
GENERATED VIA SPACETRACK.ORG API,18 SPCS,41616,FLOCK 2P 5,PAYLOAD,U,16040T,2/26/2019 21:26,613824,15.25079414,0.0011704,97.3871,124.8326,70.0119,290.2378,0,999,14903,4.42E-05,1.04E-05,0,2416870,0 FLOCK 2P 5,1 41616U 16040T   19057.89368766 +.00001036 +00000-0 +44224-4 0  9994,2 41616 097.3871 124.8326 0011704 070.0119 290.2378 15.25079414149038,2016-040T,41616,6868.683,94.421,498.588,482.509
GENERATED VIA SPACETRACK.ORG API,18 SPCS,41616,FLOCK 2P 5,PAYLOAD,U,16040T,2/27/2019 19:29,429888,15.25081423,0.0011674,97.387,125.7391,67.2484,292.9987,0,999,14917,4.63E-05,1.09E-05,0,2417338,0 FLOCK 2P 5,1 41616U 16040T   19058.81226192  .00001089  00000-0  46322-4 0  9992,2 41616  97.3870 125.7391 0011674  67.2484 292.9987 15.25081423149171,2016-040T,41616,6868.677,94.421,498.561,482.524
GENERATED VIA SPACETRACK.ORG API,18 SPCS,41616,FLOCK 2P 5,PAYLOAD,U,16040T,2/28/2019 19:06,932672,15.25085076,0.0011622,97.3868,126.7103,64.2145,296.029,0,999,14932,5.64E-05,1.34E-05,0,2417703,0 FLOCK 2P 5,1 41616U 16040T   19059.79644598 +.00001342 +00000-0 +56447-4 0  9995,2 41616 097.3868 126.7103 0011622 064.2145 296.0290 15.25085076149321,2016-040T,41616,6868.666,94.42,498.514,482.549
GENERATED VIA SPACETRACK.ORG API,18 SPCS,41616,FLOCK 2P 5,PAYLOAD,U,16040T,3/1/2019 9:17,16544,15.25086523,0.0011587,97.3867,127.2931,62.3994,297.8419,0,999,14941,5.80E-05,1.38E-05,0,2418055,0 FLOCK 2P 5,1 41616U 16040T   19060.38695621  .00001382  00000-0  58046-4 0  9996,2 41616  97.3867 127.2931 0011587  62.3994 297.8419 15.25086523149416,2016-040T,41616,6868.662,94.42,498.486,482.568
GENERATED VIA SPACETRACK.ORG API,18 SPCS,41616,FLOCK 2P 5,PAYLOAD,U,16040T,3/1/2019 20:18,190432,15.25088255,0.0011557,97.3866,127.7463,60.9001,299.3393,0,999,14948,6.12E-05,1.46E-05,0,2418617,0 FLOCK 2P 5,1 41616U 16040T   19060.84624063 +.00001461 +00000-0 +61187-4 0  9997,2 41616 097.3866 127.7463 0011557 060.9001 299.3393 15.25088255149489,2016-040T,41616,6868.657,94.42,498.46,482.584
GENERATED VIA SPACETRACK.ORG API,18 SPCS,41616,FLOCK 2P 5,PAYLOAD,U,16040T,3/2/2019 10:28,111872,15.25089553,0.0011517,97.3865,128.3289,59.0012,301.2355,0,999,14957,5.89E-05,1.40E-05,0,2418560,0 FLOCK 2P 5,1 41616U 16040T   19061.43674898  .00001404  00000-0  58886-4 0  9993,2 41616  97.3865 128.3289 0011517  59.0012 301.2355 15.25089553149571,2016-040T,41616,6868.653,94.42,498.429,482.607
GENERATED VIA SPACETRACK.ORG API,18 SPCS,41616,FLOCK 2P 5,PAYLOAD,U,16040T,3/2/2019 21:30,176032,15.25091388,0.0011478,97.3864,128.7822,57.3741,302.8603,0,999,14964,6.15E-05,1.47E-05,0,2419081,0 FLOCK 2P 5,1 41616U 16040T   19061.89603213 +.00001469 +00000-0 +61484-4 0  9995,2 41616 097.3864 128.7822 0011478 057.3741 302.8603 15.25091388149643,2016-040T,41616,6868.648,94.42,498.396,482.629
GENERATED VIA SPACETRACK.ORG API,18 SPCS,41616,FLOCK 2P 5,PAYLOAD,U,16040T,3/3/2019 11:40,913440,15.25093952,0.0011414,97.3864,129.3648,55.6451,304.5865,0,999,14973,6.59E-05,1.58E-05,0,2419039,0 FLOCK 2P 5,1 41616U 16040T   19062.48653835  .00001579  00000-0  65869-4 0  9999,2 41616  97.3864 129.3648 0011414  55.6451 304.5865 15.25093952149733,2016-040T,41616,6868.64,94.42,498.345,482.665
GENERATED VIA SPACETRACK.ORG API,18 SPCS,41616,FLOCK 2P 5,PAYLOAD,U,16040T,3/3/2019 21:07,112896,15.25095157,0.0011386,97.3862,129.7533,54.488,305.7418,0,999,14979,6.73E-05,1.61E-05,0,2419310,0 FLOCK 2P 5,1 41616U 16040T   19062.88020964 +.00001614 +00000-0 +67295-4 0  9999,2 41616 097.3862 129.7533 0011386 054.4880 305.7418 15.25095157149791,2016-040T,41616,6868.636,94.42,498.322,482.681
GENERATED VIA SPACETRACK.ORG API,18 SPCS,41616,FLOCK 2P 5,PAYLOAD,U,16040T,3/4/2019 19:10,60640,15.25097218,0.0011322,97.3861,130.6597,51.6617,308.5636,0,999,14993,6.11E-05,1.46E-05,0,2419772,0 FLOCK 2P 5,1 41616U 16040T   19063.79877385  .00001458  00000-0  61067-4 0  9994,2 41616  97.3861 130.6597 0011322  51.6617 308.5636 15.25097218149937,2016-040T,41616,6868.63,94.42,498.272,482.718
GENERATED VIA SPACETRACK.ORG API,18 SPCS,41616,FLOCK 2P 5,PAYLOAD,U,16040T,3/5/2019 17:12,860640,15.25099271,0.0011252,97.3858,131.566,48.7846,311.436,0,999,15007,5.45E-05,1.29E-05,0,2420310,0 FLOCK 2P 5,1 41616U 16040T   19064.71733635 +.00001293 +00000-0 +54455-4 0  9996,2 41616 097.3858 131.5660 0011252 048.7846 311.4360 15.25099271150072,2016-040T,41616,6868.624,94.42,498.217,482.76
GENERATED VIA SPACETRACK.ORG API,18 SPCS,41616,FLOCK 2P 5,PAYLOAD,U,16040T,3/6/2019 4:14,691520,15.25100599,0.0011217,97.3857,132.0192,47.3104,312.9076,0,999,15014,5.32E-05,1.26E-05,0,2420457,0 FLOCK 2P 5,1 41616U 16040T   19065.17661680  .00001262  00000-0  53237-4 0  9990,2 41616  97.3857 132.0192 0011217  47.3104 312.9076 15.25100599150144,2016-040T,41616,6868.62,94.42,498.189,482.78
GENERATED VIA SPACETRACK.ORG API,18 SPCS,41616,FLOCK 2P 5,PAYLOAD,U,16040T,3/6/2019 19:59,916064,15.25103589,0.0011165,97.3856,132.6666,45.2416,314.9728,0,999,15024,5.88E-05,1.40E-05,0,2420848,0 FLOCK 2P 5,1 41616U 16040T   19065.83273051 +.00001403 +00000-0 +58832-4 0  9997,2 41616 097.3856 132.6666 0011165 045.2416 314.9728 15.25103589150249,2016-040T,41616,6868.611,94.419,498.145,482.807
